{
  "links" : {
    "next" : "https://api.nasa.gov/neo/rest/v1/feed?start_date=2006-01-16&end_date=2006-01-16&detailed=true&api_key=t0TVs3DtDT2H8Oy2Zy8m2eVrNsAVKAexjcZXUckd",
    "prev" : "https://api.nasa.gov/neo/rest/v1/feed?start_date=2006-01-14&end_date=2006-01-14&detailed=true&api_key=t0TVs3DtDT2H8Oy2Zy8m2eVrNsAVKAexjcZXUckd",
    "self" : "https://api.nasa.gov/neo/rest/v1/feed?start_date=2006-01-15&end_date=2006-01-15&detailed=true&api_key=t0TVs3DtDT2H8Oy2Zy8m2eVrNsAVKAexjcZXUckd"
  },
  "element_count" : 6,
  "near_earth_objects" : {
    "2006-01-15" : [ {
      "links" : {
        "self" : "https://api.nasa.gov/neo/rest/v1/neo/2023183?api_key=t0TVs3DtDT2H8Oy2Zy8m2eVrNsAVKAexjcZXUckd"
      },
      "neo_reference_id" : "2023183",
      "name" : "23183 (2000 OY21)",
      "nasa_jpl_url" : "http://ssd.jpl.nasa.gov/sbdb.cgi?sstr=2023183",
      "absolute_magnitude_h" : 16.0,
      "estimated_diameter" : {
        "kilometers" : {
          "estimated_diameter_min" : 1.6770846216,
          "estimated_diameter_max" : 3.750075218
        },
        "meters" : {
          "estimated_diameter_min" : 1677.0846216284,
          "estimated_diameter_max" : 3750.0752179805
        },
        "miles" : {
          "estimated_diameter_min" : 1.0420917484,
          "estimated_diameter_max" : 2.3301879883
        },
        "feet" : {
          "estimated_diameter_min" : 5502.2463100232,
          "estimated_diameter_max" : 12303.3967781592
        }
      },
      "is_potentially_hazardous_asteroid" : false,
      "close_approach_data" : [ {
        "close_approach_date" : "2006-01-15",
        "epoch_date_close_approach" : 1137312000000,
        "relative_velocity" : {
          "kilometers_per_second" : "23.392083355",
          "kilometers_per_hour" : "84211.5000779482",
          "miles_per_hour" : "52325.7512567673"
        },
        "miss_distance" : {
          "astronomical" : "0.2807832493",
          "lunar" : "109.2246780396",
          "kilometers" : "42004576",
          "miles" : "26100432"
        },
        "orbiting_body" : "Earth"
      } ],
      "orbital_data" : {
        "orbit_id" : "170",
        "orbit_determination_date" : "2017-07-18 06:19:59",
        "orbit_uncertainty" : "0",
        "minimum_orbit_intersection" : ".257566",
        "jupiter_tisserand_invariant" : "3.672",
        "epoch_osculation" : "2458000.5",
        "eccentricity" : ".4012820623543256",
        "semi_major_axis" : "1.824059315880745",
        "inclination" : "40.95787681394609",
        "ascending_node_longitude" : "119.6874132587705",
        "orbital_period" : "899.8225284178978",
        "perihelion_distance" : "1.0920970317475",
        "perihelion_argument" : "301.417785937059",
        "aphelion_distance" : "2.556021600013991",
        "perihelion_time" : "2458202.954986310898",
        "mean_anomaly" : "279.0020334342257",
        "mean_motion" : ".4000788918154402",
        "equinox" : "J2000"
      }
    }, {
      "links" : {
        "self" : "https://api.nasa.gov/neo/rest/v1/neo/3297378?api_key=t0TVs3DtDT2H8Oy2Zy8m2eVrNsAVKAexjcZXUckd"
      },
      "neo_reference_id" : "3297378",
      "name" : "(2005 UT64)",
      "nasa_jpl_url" : "http://ssd.jpl.nasa.gov/sbdb.cgi?sstr=3297378",
      "absolute_magnitude_h" : 20.1,
      "estimated_diameter" : {
        "kilometers" : {
          "estimated_diameter_min" : 0.2538370294,
          "estimated_diameter_max" : 0.5675968529
        },
        "meters" : {
          "estimated_diameter_min" : 253.8370293645,
          "estimated_diameter_max" : 567.5968528656
        },
        "miles" : {
          "estimated_diameter_min" : 0.1577269688,
          "estimated_diameter_max" : 0.3526882241
        },
        "feet" : {
          "estimated_diameter_min" : 832.7986794202,
          "estimated_diameter_max" : 1862.1944587557
        }
      },
      "is_potentially_hazardous_asteroid" : true,
      "close_approach_data" : [ {
        "close_approach_date" : "2006-01-15",
        "epoch_date_close_approach" : 1137312000000,
        "relative_velocity" : {
          "kilometers_per_second" : "10.5708509301",
          "kilometers_per_hour" : "38055.06334822",
          "miles_per_hour" : "23645.9364454537"
        },
        "miss_distance" : {
          "astronomical" : "0.1632130582",
          "lunar" : "63.4898796082",
          "kilometers" : "24416326",
          "miles" : "15171602"
        },
        "orbiting_body" : "Earth"
      } ],
      "orbital_data" : {
        "orbit_id" : "19",
        "orbit_determination_date" : "2017-09-02 06:18:31",
        "orbit_uncertainty" : "0",
        "minimum_orbit_intersection" : ".0451323",
        "jupiter_tisserand_invariant" : "3.849",
        "epoch_osculation" : "2458000.5",
        "eccentricity" : ".5216786276267267",
        "semi_major_axis" : "1.821637525199351",
        "inclination" : "10.50322030220917",
        "ascending_node_longitude" : "161.6340850534452",
        "orbital_period" : "898.0310913351932",
        "perihelion_distance" : ".8713281610200069",
        "perihelion_argument" : "327.3485317764602",
        "aphelion_distance" : "2.771946889378695",
        "perihelion_time" : "2458250.096458964786",
        "mean_anomaly" : "259.9425230436879",
        "mean_motion" : ".4008769890859255",
        "equinox" : "J2000"
      }
    }, {
      "links" : {
        "self" : "https://api.nasa.gov/neo/rest/v1/neo/3395956?api_key=t0TVs3DtDT2H8Oy2Zy8m2eVrNsAVKAexjcZXUckd"
      },
      "neo_reference_id" : "3395956",
      "name" : "(2007 WM3)",
      "nasa_jpl_url" : "http://ssd.jpl.nasa.gov/sbdb.cgi?sstr=3395956",
      "absolute_magnitude_h" : 23.1,
      "estimated_diameter" : {
        "kilometers" : {
          "estimated_diameter_min" : 0.063760979,
          "estimated_diameter_max" : 0.1425738833
        },
        "meters" : {
          "estimated_diameter_min" : 63.7609789875,
          "estimated_diameter_max" : 142.5738833281
        },
        "miles" : {
          "estimated_diameter_min" : 0.0396192233,
          "estimated_diameter_max" : 0.0885912765
        },
        "feet" : {
          "estimated_diameter_min" : 209.1895703015,
          "estimated_diameter_max" : 467.7620993781
        }
      },
      "is_potentially_hazardous_asteroid" : false,
      "close_approach_data" : [ {
        "close_approach_date" : "2006-01-15",
        "epoch_date_close_approach" : 1137312000000,
        "relative_velocity" : {
          "kilometers_per_second" : "16.1294180942",
          "kilometers_per_hour" : "58065.9051389828",
          "miles_per_hour" : "36079.8953348308"
        },
        "miss_distance" : {
          "astronomical" : "0.1772023987",
          "lunar" : "68.9317321777",
          "kilometers" : "26509102",
          "miles" : "16471993"
        },
        "orbiting_body" : "Earth"
      } ],
      "orbital_data" : {
        "orbit_id" : "9",
        "orbit_determination_date" : "2017-04-06 09:05:04",
        "orbit_uncertainty" : "6",
        "minimum_orbit_intersection" : ".0226427",
        "jupiter_tisserand_invariant" : "7.255",
        "epoch_osculation" : "2458000.5",
        "eccentricity" : ".4280687335710735",
        "semi_major_axis" : ".7939651512770171",
        "inclination" : "6.46926638353384",
        "ascending_node_longitude" : "55.44993791280906",
        "orbital_period" : "258.4048067926953",
        "perihelion_distance" : ".4540934944702985",
        "perihelion_argument" : "204.0774144281732",
        "aphelion_distance" : "1.133836808083736",
        "perihelion_time" : "2457952.639394504363",
        "mean_anomaly" : "66.67762179924156",
        "mean_motion" : "1.393162938678649",
        "equinox" : "J2000"
      }
    } ]
  }
}